ATLAS CENTAUR R/B       
1 06155U 72065B   25300.90581761  .00002129  00000+0  29598-3 0  9993
2 06155  35.0033   3.6461 0034162 332.1680  27.7193 14.77226415821618
SL-8 R/B                
1 08459U 75112B   25300.91894048  .00000423  00000+0  14787-3 0  9993
2 08459  74.0596 263.1337 0015092  22.8124 337.3697 14.38100891612787
SL-3 R/B                
1 10114U 77057B   25300.94768441  .00013211  00000+0  31661-3 0  9993
2 10114  97.5683 102.5496 0008749  48.3649 311.8345 15.41508891647853
SEASAT 1                
1 10967U 78064A   25300.67837263  .00000538  00000+0  18942-3 0  9992
2 10967 108.0046 206.4213 0002667 263.3309  96.7533 14.45984078487281
SL-14 R/B               
1 11267U 79011B   25300.83959314  .00001012  00000+0  97876-4 0  9991
2 11267  82.5260 222.5648 0017137 136.7952 223.4615 14.91683384508972
SL-8 R/B                
1 11574U 79089B   25300.50126264  .00000378  00000+0  12253-3 0  9990
2 11574  74.0695 337.5606 0015742 188.4665 171.6228 14.42236805416900
SL-14 R/B               
1 11672U 80005B   25300.83241040  .00001116  00000+0  11108-3 0  9994
2 11672  82.5137  73.2272 0014472 244.3182 115.6543 14.90695660456691
SL-8 R/B                
1 12139U 81003B   25300.81959752  .00021842  00000+0  61343-3 0  9990
2 12139  82.9330  52.3830 0285157 279.0429  77.8632 15.04555364294652
SL-3 R/B                
1 12465U 81046B   25300.91921546  .00014672  00000+0  38634-3 0  9990
2 12465  81.2315  88.6867 0020830 120.4203 239.9100 15.38185770417997
METEOR PRIRODA          
1 12585U 81065A   25300.91348721  .00295595  37022-4  69873-3 0  9995
2 12585  97.4619   3.6854 0000990   2.7925 357.3356 15.96790633423457
SL-3 R/B                
1 12904U 81103B   25300.90304892  .00005161  00000+0  24121-3 0  9999
2 12904  81.1620   9.0014 0017854  32.0572 328.1740 15.19472148953053
SL-3 R/B                
1 13068U 82013B   25300.98090391  .00005903  00000+0  26739-3 0  9997
2 13068  81.1740 316.1565 0021536 266.3604  93.5164 15.20499443384174
