CCSDS_OMM_VERS = 2.0
CREATION_DATE  = 
ORIGINATOR     = 

OBJECT_NAME    = ATLAS CENTAUR R/B
OBJECT_ID      = 1972-065B
CENTER_NAME    = EARTH
REF_FRAME      = TEME
TIME_SYSTEM    = UTC
MEAN_ELEMENT_THEORY = SGP/SGP4

EPOCH          = 2025-10-27T21:44:22.641504
MEAN_MOTION    = 14.77226415
ECCENTRICITY   = .00341626
INCLINATION    = 35.0033
RA_OF_ASC_NODE = 3.6461
ARG_OF_PERICENTER = 332.1680
MEAN_ANOMALY   = 27.7193

EPHEMERIS_TYPE = 0
CLASSIFICATION_TYPE = U
NORAD_CAT_ID   = 6155
ELEMENT_SET_NO = 999
REV_AT_EPOCH   = 82161
BSTAR          = .29598398E-3
MEAN_MOTION_DOT = .2129E-4
MEAN_MOTION_DDOT = 0

CCSDS_OMM_VERS = 2.0
CREATION_DATE  = 
ORIGINATOR     = 

OBJECT_NAME    = SL-8 R/B
OBJECT_ID      = 1975-112B
CENTER_NAME    = EARTH
REF_FRAME      = TEME
TIME_SYSTEM    = UTC
MEAN_ELEMENT_THEORY = SGP/SGP4

EPOCH          = 2025-10-27T22:03:16.457472
MEAN_MOTION    = 14.38100891
ECCENTRICITY   = .00150922
INCLINATION    = 74.0596
RA_OF_ASC_NODE = 263.1337
ARG_OF_PERICENTER = 22.8124
MEAN_ANOMALY   = 337.3697

EPHEMERIS_TYPE = 0
CLASSIFICATION_TYPE = U
NORAD_CAT_ID   = 8459
ELEMENT_SET_NO = 999
REV_AT_EPOCH   = 61278
BSTAR          = .14786658E-3
MEAN_MOTION_DOT = .423E-5
MEAN_MOTION_DDOT = 0

CCSDS_OMM_VERS = 2.0
CREATION_DATE  = 
ORIGINATOR     = 

OBJECT_NAME    = SL-3 R/B
OBJECT_ID      = 1977-057B
CENTER_NAME    = EARTH
REF_FRAME      = TEME
TIME_SYSTEM    = UTC
MEAN_ELEMENT_THEORY = SGP/SGP4

EPOCH          = 2025-10-27T22:44:39.933024
MEAN_MOTION    = 15.41508891
ECCENTRICITY   = .00087493
INCLINATION    = 97.5683
RA_OF_ASC_NODE = 102.5496
ARG_OF_PERICENTER = 48.3649
MEAN_ANOMALY   = 311.8345

EPHEMERIS_TYPE = 0
CLASSIFICATION_TYPE = U
NORAD_CAT_ID   = 10114
ELEMENT_SET_NO = 999
REV_AT_EPOCH   = 64785
BSTAR          = .31661423E-3
MEAN_MOTION_DOT = .13211E-3
MEAN_MOTION_DDOT = 0

CCSDS_OMM_VERS = 2.0
CREATION_DATE  = 
ORIGINATOR     = 

OBJECT_NAME    = SEASAT 1
OBJECT_ID      = 1978-064A
CENTER_NAME    = EARTH
REF_FRAME      = TEME
TIME_SYSTEM    = UTC
MEAN_ELEMENT_THEORY = SGP/SGP4

EPOCH          = 2025-10-27T16:16:51.395232
MEAN_MOTION    = 14.45984078
ECCENTRICITY   = .00026678
INCLINATION    = 108.0046
RA_OF_ASC_NODE = 206.4213
ARG_OF_PERICENTER = 263.3309
MEAN_ANOMALY   = 96.7533

EPHEMERIS_TYPE = 0
CLASSIFICATION_TYPE = U
NORAD_CAT_ID   = 10967
ELEMENT_SET_NO = 999
REV_AT_EPOCH   = 48728
BSTAR          = .18941594E-3
MEAN_MOTION_DOT = .538E-5
MEAN_MOTION_DDOT = 0

CCSDS_OMM_VERS = 2.0
CREATION_DATE  = 
ORIGINATOR     = 

OBJECT_NAME    = SL-14 R/B
OBJECT_ID      = 1979-011B
CENTER_NAME    = EARTH
REF_FRAME      = TEME
TIME_SYSTEM    = UTC
MEAN_ELEMENT_THEORY = SGP/SGP4

EPOCH          = 2025-10-27T20:09:00.847296
MEAN_MOTION    = 14.91683384
ECCENTRICITY   = .00171378
INCLINATION    = 82.5260
RA_OF_ASC_NODE = 222.5648
ARG_OF_PERICENTER = 136.7952
MEAN_ANOMALY   = 223.4615

EPHEMERIS_TYPE = 0
CLASSIFICATION_TYPE = U
NORAD_CAT_ID   = 11267
ELEMENT_SET_NO = 999
REV_AT_EPOCH   = 50897
BSTAR          = .97875726E-4
MEAN_MOTION_DOT = .1012E-4
MEAN_MOTION_DDOT = 0

CCSDS_OMM_VERS = 2.0
CREATION_DATE  = 
ORIGINATOR     = 

OBJECT_NAME    = SL-8 R/B
OBJECT_ID      = 1979-089B
CENTER_NAME    = EARTH
REF_FRAME      = TEME
TIME_SYSTEM    = UTC
MEAN_ELEMENT_THEORY = SGP/SGP4

EPOCH          = 2025-10-27T12:01:49.092096
MEAN_MOTION    = 14.42236805
ECCENTRICITY   = .00157428
INCLINATION    = 74.0695
RA_OF_ASC_NODE = 337.5606
ARG_OF_PERICENTER = 188.4665
MEAN_ANOMALY   = 171.6228

EPHEMERIS_TYPE = 0
CLASSIFICATION_TYPE = U
NORAD_CAT_ID   = 11574
ELEMENT_SET_NO = 999
REV_AT_EPOCH   = 41690
BSTAR          = .12252915E-3
MEAN_MOTION_DOT = .378E-5
MEAN_MOTION_DDOT = 0

CCSDS_OMM_VERS = 2.0
CREATION_DATE  = 
ORIGINATOR     = 

OBJECT_NAME    = SL-14 R/B
OBJECT_ID      = 1980-005B
CENTER_NAME    = EARTH
REF_FRAME      = TEME
TIME_SYSTEM    = UTC
MEAN_ELEMENT_THEORY = SGP/SGP4

EPOCH          = 2025-10-27T19:58:40.258560
MEAN_MOTION    = 14.90695660
ECCENTRICITY   = .00144724
INCLINATION    = 82.5137
RA_OF_ASC_NODE = 73.2272
ARG_OF_PERICENTER = 244.3182
MEAN_ANOMALY   = 115.6543

EPHEMERIS_TYPE = 0
CLASSIFICATION_TYPE = U
NORAD_CAT_ID   = 11672
ELEMENT_SET_NO = 999
REV_AT_EPOCH   = 45669
BSTAR          = .11107924E-3
MEAN_MOTION_DOT = .1116E-4
MEAN_MOTION_DDOT = 0

CCSDS_OMM_VERS = 2.0
CREATION_DATE  = 
ORIGINATOR     = 

OBJECT_NAME    = SL-8 R/B
OBJECT_ID      = 1981-003B
CENTER_NAME    = EARTH
REF_FRAME      = TEME
TIME_SYSTEM    = UTC
MEAN_ELEMENT_THEORY = SGP/SGP4

EPOCH          = 2025-10-27T19:40:13.225728
MEAN_MOTION    = 15.04555364
ECCENTRICITY   = .02851579
INCLINATION    = 82.9330
RA_OF_ASC_NODE = 52.3830
ARG_OF_PERICENTER = 279.0429
MEAN_ANOMALY   = 77.8632

EPHEMERIS_TYPE = 0
CLASSIFICATION_TYPE = U
NORAD_CAT_ID   = 12139
ELEMENT_SET_NO = 999
REV_AT_EPOCH   = 29465
BSTAR          = .6134289E-3
MEAN_MOTION_DOT = .21842E-3
MEAN_MOTION_DDOT = 0

CCSDS_OMM_VERS = 2.0
CREATION_DATE  = 
ORIGINATOR     = 

OBJECT_NAME    = SL-3 R/B
OBJECT_ID      = 1981-046B
CENTER_NAME    = EARTH
REF_FRAME      = TEME
TIME_SYSTEM    = UTC
MEAN_ELEMENT_THEORY = SGP/SGP4

EPOCH          = 2025-10-27T22:03:40.215744
MEAN_MOTION    = 15.38185770
ECCENTRICITY   = .00208302
INCLINATION    = 81.2315
RA_OF_ASC_NODE = 88.6867
ARG_OF_PERICENTER = 120.4203
MEAN_ANOMALY   = 239.9100

EPHEMERIS_TYPE = 0
CLASSIFICATION_TYPE = U
NORAD_CAT_ID   = 12465
ELEMENT_SET_NO = 999
REV_AT_EPOCH   = 41799
BSTAR          = .38634033E-3
MEAN_MOTION_DOT = .14672E-3
MEAN_MOTION_DDOT = 0

CCSDS_OMM_VERS = 2.0
CREATION_DATE  = 
ORIGINATOR     = 

OBJECT_NAME    = METEOR PRIRODA
OBJECT_ID      = 1981-065A
CENTER_NAME    = EARTH
REF_FRAME      = TEME
TIME_SYSTEM    = UTC
MEAN_ELEMENT_THEORY = SGP/SGP4

EPOCH          = 2025-10-27T21:55:25.294944
MEAN_MOTION    = 15.96790633
ECCENTRICITY   = .00009906
INCLINATION    = 97.4619
RA_OF_ASC_NODE = 3.6854
ARG_OF_PERICENTER = 2.7925
MEAN_ANOMALY   = 357.3356

EPHEMERIS_TYPE = 0
CLASSIFICATION_TYPE = U
NORAD_CAT_ID   = 12585
ELEMENT_SET_NO = 999
REV_AT_EPOCH   = 42345
BSTAR          = .69872682E-3
MEAN_MOTION_DOT = .295595E-2
MEAN_MOTION_DDOT = .37021831E-4

CCSDS_OMM_VERS = 2.0
CREATION_DATE  = 
ORIGINATOR     = 

OBJECT_NAME    = SL-3 R/B
OBJECT_ID      = 1981-103B
CENTER_NAME    = EARTH
REF_FRAME      = TEME
TIME_SYSTEM    = UTC
MEAN_ELEMENT_THEORY = SGP/SGP4

EPOCH          = 2025-10-27T21:40:23.426688
MEAN_MOTION    = 15.19472148
ECCENTRICITY   = .00178544
INCLINATION    = 81.1620
RA_OF_ASC_NODE = 9.0014
ARG_OF_PERICENTER = 32.0572
MEAN_ANOMALY   = 328.1740

EPHEMERIS_TYPE = 0
CLASSIFICATION_TYPE = U
NORAD_CAT_ID   = 12904
ELEMENT_SET_NO = 999
REV_AT_EPOCH   = 95305
BSTAR          = .24120581E-3
MEAN_MOTION_DOT = .5161E-4
MEAN_MOTION_DDOT = 0

CCSDS_OMM_VERS = 2.0
CREATION_DATE  = 
ORIGINATOR     = 

OBJECT_NAME    = SL-3 R/B
OBJECT_ID      = 1982-013B
CENTER_NAME    = EARTH
REF_FRAME      = TEME
TIME_SYSTEM    = UTC
MEAN_ELEMENT_THEORY = SGP/SGP4

EPOCH          = 2025-10-27T23:32:30.097824
MEAN_MOTION    = 15.20499443
ECCENTRICITY   = .00215369
INCLINATION    = 81.1740
RA_OF_ASC_NODE = 316.1565
ARG_OF_PERICENTER = 266.3604
MEAN_ANOMALY   = 93.5164

EPHEMERIS_TYPE = 0
CLASSIFICATION_TYPE = U
NORAD_CAT_ID   = 13068
ELEMENT_SET_NO = 999
REV_AT_EPOCH   = 38417
BSTAR          = .26739184E-3
MEAN_MOTION_DOT = .5903E-4
MEAN_MOTION_DDOT = 0

